SATELIOT_4              
1 60537U 24149BX  26068.74229552  .00002907  00000+0  26256-3 0  9990
2 60537  97.6789 145.1106 0002390  45.2073 314.9342 14.96254023 85108
STARLINK-34023          
1 63875U 25094M   26068.88015902  .00004956  00000+0  42277-3 0  9992
2 63875  70.0017 233.8953 0002238 274.8703  85.2201 14.98338686 47235
